{
"type": "FeatureCollection",
"name": "aoc_simplified",
"crs": { "type": "name", "properties": { "name": "urn:ogc:def:crs:OGC:1.3:CRS84" } },
"features": [
{ "type": "Feature", "properties": { "app": "Bordeaux", "dt": "Bordeaux", "type_ig": "AOC" }, "geometry": { "type": "Polygon", "coordinates": [ [ [ -0.8, 44.7 ], [ -0.3, 44.7 ], [ -0.3, 45.1 ], [ -0.8, 45.1 ], [ -0.8, 44.7 ] ] ] } },
{ "type": "Feature", "properties": { "app": "Médoc", "dt": "Bordeaux", "type_ig": "AOC" }, "geometry": { "type": "Polygon", "coordinates": [ [ [ -1.1, 45.0 ], [ -0.7, 45.0 ], [ -0.7, 45.4 ], [ -1.1, 45.4 ], [ -1.1, 45.0 ] ] ] } },
{ "type": "Feature", "properties": { "app": "Saint-Émilion", "dt": "Bordeaux", "type_ig": "AOC" }, "geometry": { "type": "Polygon", "coordinates": [ [ [ -0.2, 44.85 ], [ 0.0, 44.85 ], [ 0.0, 44.95 ], [ -0.2, 44.95 ], [ -0.2, 44.85 ] ] ] } },
{ "type": "Feature", "properties": { "app": "Pomerol", "dt": "Bordeaux", "type_ig": "AOC" }, "geometry": { "type": "Polygon", "coordinates": [ [ [ -0.22, 44.91 ], [ -0.15, 44.91 ], [ -0.15, 44.95 ], [ -0.22, 44.95 ], [ -0.22, 44.91 ] ] ] } },
{ "type": "Feature", "properties": { "app": "Margaux", "dt": "Bordeaux", "type_ig": "AOC" }, "geometry": { "type": "Polygon", "coordinates": [ [ [ -0.75, 45.02 ], [ -0.6, 45.02 ], [ -0.6, 45.08 ], [ -0.75, 45.08 ], [ -0.75, 45.02 ] ] ] } },
{ "type": "Feature", "properties": { "app": "Pauillac", "dt": "Bordeaux", "type_ig": "AOC" }, "geometry": { "type": "Polygon", "coordinates": [ [ [ -0.78, 45.15 ], [ -0.7, 45.15 ], [ -0.7, 45.22 ], [ -0.78, 45.22 ], [ -0.78, 45.15 ] ] ] } },
{ "type": "Feature", "properties": { "app": "Sauternes", "dt": "Bordeaux", "type_ig": "AOC" }, "geometry": { "type": "Polygon", "coordinates": [ [ [ -0.4, 44.5 ], [ -0.25, 44.5 ], [ -0.25, 44.6 ], [ -0.4, 44.6 ], [ -0.4, 44.5 ] ] ] } },
{ "type": "Feature", "properties": { "app": "Pessac-Léognan", "dt": "Bordeaux", "type_ig": "AOC" }, "geometry": { "type": "Polygon", "coordinates": [ [ [ -0.7, 44.7 ], [ -0.55, 44.7 ], [ -0.55, 44.8 ], [ -0.7, 44.8 ], [ -0.7, 44.7 ] ] ] } },
{ "type": "Feature", "properties": { "app": "Chablis", "dt": "Dijon", "type_ig": "AOC" }, "geometry": { "type": "Polygon", "coordinates": [ [ [ 3.7, 47.75 ], [ 3.9, 47.75 ], [ 3.9, 47.9 ], [ 3.7, 47.9 ], [ 3.7, 47.75 ] ] ] } },
{ "type": "Feature", "properties": { "app": "Meursault", "dt": "Dijon", "type_ig": "AOC" }, "geometry": { "type": "Polygon", "coordinates": [ [ [ 4.73, 46.97 ], [ 4.8, 46.97 ], [ 4.8, 47.02 ], [ 4.73, 47.02 ], [ 4.73, 46.97 ] ] ] } },
{ "type": "Feature", "properties": { "app": "Pommard", "dt": "Dijon", "type_ig": "AOC" }, "geometry": { "type": "Polygon", "coordinates": [ [ [ 4.75, 47.0 ], [ 4.82, 47.0 ], [ 4.82, 47.05 ], [ 4.75, 47.05 ], [ 4.75, 47.0 ] ] ] } },
{ "type": "Feature", "properties": { "app": "Gevrey-Chambertin", "dt": "Dijon", "type_ig": "AOC" }, "geometry": { "type": "Polygon", "coordinates": [ [ [ 4.93, 47.2 ], [ 5.0, 47.2 ], [ 5.0, 47.25 ], [ 4.93, 47.25 ], [ 4.93, 47.2 ] ] ] } },
{ "type": "Feature", "properties": { "app": "Nuits-Saint-Georges", "dt": "Dijon", "type_ig": "AOC" }, "geometry": { "type": "Polygon", "coordinates": [ [ [ 4.92, 47.12 ], [ 4.98, 47.12 ], [ 4.98, 47.17 ], [ 4.92, 47.17 ], [ 4.92, 47.12 ] ] ] } },
{ "type": "Feature", "properties": { "app": "Beaune", "dt": "Dijon", "type_ig": "AOC" }, "geometry": { "type": "Polygon", "coordinates": [ [ [ 4.8, 47.01 ], [ 4.88, 47.01 ], [ 4.88, 47.06 ], [ 4.8, 47.06 ], [ 4.8, 47.01 ] ] ] } },
{ "type": "Feature", "properties": { "app": "Volnay", "dt": "Dijon", "type_ig": "AOC" }, "geometry": { "type": "Polygon", "coordinates": [ [ [ 4.76, 47.0 ], [ 4.8, 47.0 ], [ 4.8, 47.03 ], [ 4.76, 47.03 ], [ 4.76, 47.0 ] ] ] } },
{ "type": "Feature", "properties": { "app": "Chambolle-Musigny", "dt": "Dijon", "type_ig": "AOC" }, "geometry": { "type": "Polygon", "coordinates": [ [ [ 4.93, 47.17 ], [ 4.98, 47.17 ], [ 4.98, 47.2 ], [ 4.93, 47.2 ], [ 4.93, 47.17 ] ] ] } },
{ "type": "Feature", "properties": { "app": "Châteauneuf-du-Pape", "dt": "Avignon", "type_ig": "AOC" }, "geometry": { "type": "Polygon", "coordinates": [ [ [ 4.8, 44.04 ], [ 4.9, 44.04 ], [ 4.9, 44.1 ], [ 4.8, 44.1 ], [ 4.8, 44.04 ] ] ] } },
{ "type": "Feature", "properties": { "app": "Côtes du Rhône", "dt": "Avignon", "type_ig": "AOC" }, "geometry": { "type": "Polygon", "coordinates": [ [ [ 4.5, 44.0 ], [ 5.0, 44.0 ], [ 5.0, 44.8 ], [ 4.5, 44.8 ], [ 4.5, 44.0 ] ] ] } },
{ "type": "Feature", "properties": { "app": "Hermitage", "dt": "Avignon", "type_ig": "AOC" }, "geometry": { "type": "Polygon", "coordinates": [ [ [ 4.81, 45.06 ], [ 4.87, 45.06 ], [ 4.87, 45.1 ], [ 4.81, 45.1 ], [ 4.81, 45.06 ] ] ] } },
{ "type": "Feature", "properties": { "app": "Côte-Rôtie", "dt": "Avignon", "type_ig": "AOC" }, "geometry": { "type": "Polygon", "coordinates": [ [ [ 4.78, 45.45 ], [ 4.83, 45.45 ], [ 4.83, 45.52 ], [ 4.78, 45.52 ], [ 4.78, 45.45 ] ] ] } },
{ "type": "Feature", "properties": { "app": "Gigondas", "dt": "Avignon", "type_ig": "AOC" }, "geometry": { "type": "Polygon", "coordinates": [ [ [ 5.0, 44.15 ], [ 5.08, 44.15 ], [ 5.08, 44.2 ], [ 5.0, 44.2 ], [ 5.0, 44.15 ] ] ] } },
{ "type": "Feature", "properties": { "app": "Condrieu", "dt": "Avignon", "type_ig": "AOC" }, "geometry": { "type": "Polygon", "coordinates": [ [ [ 4.76, 45.43 ], [ 4.8, 45.43 ], [ 4.8, 45.48 ], [ 4.76, 45.48 ], [ 4.76, 45.43 ] ] ] } },
{ "type": "Feature", "properties": { "app": "Champagne", "dt": "Épernay", "type_ig": "AOC" }, "geometry": { "type": "Polygon", "coordinates": [ [ [ 3.4, 48.8 ], [ 4.2, 48.8 ], [ 4.2, 49.4 ], [ 3.4, 49.4 ], [ 3.4, 48.8 ] ] ] } },
{ "type": "Feature", "properties": { "app": "Alsace", "dt": "Colmar", "type_ig": "AOC" }, "geometry": { "type": "Polygon", "coordinates": [ [ [ 7.1, 47.9 ], [ 7.6, 47.9 ], [ 7.6, 48.5 ], [ 7.1, 48.5 ], [ 7.1, 47.9 ] ] ] } },
{ "type": "Feature", "properties": { "app": "Sancerre", "dt": "Tours", "type_ig": "AOC" }, "geometry": { "type": "Polygon", "coordinates": [ [ [ 2.8, 47.3 ], [ 2.9, 47.3 ], [ 2.9, 47.4 ], [ 2.8, 47.4 ], [ 2.8, 47.3 ] ] ] } },
{ "type": "Feature", "properties": { "app": "Pouilly-Fumé", "dt": "Tours", "type_ig": "AOC" }, "geometry": { "type": "Polygon", "coordinates": [ [ [ 2.9, 47.25 ], [ 3.0, 47.25 ], [ 3.0, 47.35 ], [ 2.9, 47.35 ], [ 2.9, 47.25 ] ] ] } },
{ "type": "Feature", "properties": { "app": "Vouvray", "dt": "Tours", "type_ig": "AOC" }, "geometry": { "type": "Polygon", "coordinates": [ [ [ 0.75, 47.4 ], [ 0.85, 47.4 ], [ 0.85, 47.45 ], [ 0.75, 47.45 ], [ 0.75, 47.4 ] ] ] } },
{ "type": "Feature", "properties": { "app": "Chinon", "dt": "Tours", "type_ig": "AOC" }, "geometry": { "type": "Polygon", "coordinates": [ [ [ 0.15, 47.1 ], [ 0.3, 47.1 ], [ 0.3, 47.2 ], [ 0.15, 47.2 ], [ 0.15, 47.1 ] ] ] } },
{ "type": "Feature", "properties": { "app": "Muscadet", "dt": "Angers", "type_ig": "AOC" }, "geometry": { "type": "Polygon", "coordinates": [ [ [ -1.6, 47.0 ], [ -1.2, 47.0 ], [ -1.2, 47.3 ], [ -1.6, 47.3 ], [ -1.6, 47.0 ] ] ] } },
{ "type": "Feature", "properties": { "app": "Anjou", "dt": "Angers", "type_ig": "AOC" }, "geometry": { "type": "Polygon", "coordinates": [ [ [ -0.8, 47.2 ], [ -0.3, 47.2 ], [ -0.3, 47.5 ], [ -0.8, 47.5 ], [ -0.8, 47.2 ] ] ] } },
{ "type": "Feature", "properties": { "app": "Bandol", "dt": "Marseille", "type_ig": "AOC" }, "geometry": { "type": "Polygon", "coordinates": [ [ [ 5.7, 43.15 ], [ 5.85, 43.15 ], [ 5.85, 43.25 ], [ 5.7, 43.25 ], [ 5.7, 43.15 ] ] ] } },
{ "type": "Feature", "properties": { "app": "Côtes de Provence", "dt": "Marseille", "type_ig": "AOC" }, "geometry": { "type": "Polygon", "coordinates": [ [ [ 5.8, 43.3 ], [ 6.8, 43.3 ], [ 6.8, 43.7 ], [ 5.8, 43.7 ], [ 5.8, 43.3 ] ] ] } },
{ "type": "Feature", "properties": { "app": "Cahors", "dt": "Toulouse", "type_ig": "AOC" }, "geometry": { "type": "Polygon", "coordinates": [ [ [ 1.2, 44.35 ], [ 1.5, 44.35 ], [ 1.5, 44.55 ], [ 1.2, 44.55 ], [ 1.2, 44.35 ] ] ] } },
{ "type": "Feature", "properties": { "app": "Madiran", "dt": "Toulouse", "type_ig": "AOC" }, "geometry": { "type": "Polygon", "coordinates": [ [ [ -0.1, 43.5 ], [ 0.1, 43.5 ], [ 0.1, 43.6 ], [ -0.1, 43.6 ], [ -0.1, 43.5 ] ] ] } },
{ "type": "Feature", "properties": { "app": "Jurançon", "dt": "Toulouse", "type_ig": "AOC" }, "geometry": { "type": "Polygon", "coordinates": [ [ [ -0.5, 43.2 ], [ -0.3, 43.2 ], [ -0.3, 43.35 ], [ -0.5, 43.35 ], [ -0.5, 43.2 ] ] ] } },
{ "type": "Feature", "properties": { "app": "Corbières", "dt": "Montpellier", "type_ig": "AOC" }, "geometry": { "type": "Polygon", "coordinates": [ [ [ 2.4, 42.9 ], [ 2.9, 42.9 ], [ 2.9, 43.2 ], [ 2.4, 43.2 ], [ 2.4, 42.9 ] ] ] } },
{ "type": "Feature", "properties": { "app": "Minervois", "dt": "Montpellier", "type_ig": "AOC" }, "geometry": { "type": "Polygon", "coordinates": [ [ [ 2.3, 43.2 ], [ 2.8, 43.2 ], [ 2.8, 43.45 ], [ 2.3, 43.45 ], [ 2.3, 43.2 ] ] ] } },
{ "type": "Feature", "properties": { "app": "Languedoc", "dt": "Montpellier", "type_ig": "AOC" }, "geometry": { "type": "Polygon", "coordinates": [ [ [ 3.0, 43.3 ], [ 4.0, 43.3 ], [ 4.0, 43.8 ], [ 3.0, 43.8 ], [ 3.0, 43.3 ] ] ] } }
]
}
